[Satellite]
VERSION=1.1
NAME=DELTA 2 R/B(1)
NICKNAME=DELTA 2 R/B(1)
TLE1=1 20453U 90008B   18020.43799079  .00000622  00000-0  38188-4 0  9992
TLE2=2 20453  35.6263  33.2126 0287030 176.2712 184.0223 14.83829434480484
